{"type": "FeatureCollection", "features": [ {"type": "Feature", "properties": {"norad_id": 44476, "name": "INTELSAT 39 (IS-39)", "group": "intelsat", "lat": 0.021194244362259477, "lon": 101.30340886763643, "alt_km": 35782.644400646175, "timestamp": "2025-12-20T20:38:44.111881+00:00", "meta": {"OBJECT_NAME": "INTELSAT 39 (IS-39)", "OBJECT_ID": "2019-049B", "EPOCH": "2025-12-20T15:10:42.639744", "MEAN_MOTION": 1.00270595, "ECCENTRICITY": 0.00010528, "INCLINATION": 0.0007, "RA_OF_ASC_NODE": 40.5989, "ARG_OF_PERICENTER": 93.1346, "MEAN_ANOMALY": 245.3558, "EPHEMERIS_TYPE": 0, "CLASSIFICATION_TYPE": "U", "NORAD_CAT_ID": 44476, "ELEMENT_SET_NO": 999, "REV_AT_EPOCH": 2333, "BSTAR": 0, "MEAN_MOTION_DOT": 5.7e-07, "MEAN_MOTION_DDOT": 0}, "tle": {"line1": "1 44476U 19049B   25354.63243796  .00000057  00000+0  00000+0 0  9997", "line2": "2 44476   0.0007  40.5989 0001052  93.1346 245.3558  1.00270595 23335"}}, "geometry": {"type": "Point", "coordinates": [101.30340886763643, 0.021194244362259477]}}, {"type": "Feature", "properties": {"norad_id": 46114, "name": "GALAXY 30 (G-30)", "group": "intelsat", "lat": -0.0362341608775097, "lon": -85.61650853659621, "alt_km": 35777.07245945793, "timestamp": "2025-12-20T20:38:44.111894+00:00", "meta": {"OBJECT_NAME": "GALAXY 30 (G-30)", "OBJECT_ID": "2020-056C", "EPOCH": "2025-12-20T10:15:38.712960", "MEAN_MOTION": 1.00273232, "ECCENTRICITY": 0.00020273, "INCLINATION": 0.0119, "RA_OF_ASC_NODE": 340.3742, "ARG_OF_PERICENTER": 291.1216, "MEAN_ANOMALY": 206.6944, "EPHEMERIS_TYPE": 0, "CLASSIFICATION_TYPE": "U", "NORAD_CAT_ID": 46114, "ELEMENT_SET_NO": 999, "REV_AT_EPOCH": 1950, "BSTAR": 0, "MEAN_MOTION_DOT": 6e-07, "MEAN_MOTION_DDOT": 0}, "tle": {"line1": "1 46114U 20056C   25354.42753140  .00000060  00000+0  00000+0 0  9998", "line2": "2 46114   0.0119 340.3742 0002027 291.1216 206.6944  1.00273232 19501"}}, "geometry": {"type": "Point", "coordinates": [-85.61650853659621, -0.0362341608775097]}}, {"type": "Feature", "properties": {"norad_id": 54026, "name": "GALAXY 33 (G-33)", "group": "intelsat", "lat": -0.0321886820217317, "lon": -93.6366889359464, "alt_km": 35779.62528479317, "timestamp": "2025-12-20T20:38:44.111905+00:00", "meta": {"OBJECT_NAME": "GALAXY 33 (G-33)", "OBJECT_ID": "2022-128A", "EPOCH": "2025-12-20T12:35:49.747776", "MEAN_MOTION": 1.00271284, "ECCENTRICITY": 0.00015521, "INCLINATION": 0.0157, "RA_OF_ASC_NODE": 42.0026, "ARG_OF_PERICENTER": 226.8341, "MEAN_ANOMALY": 236.48, "EPHEMERIS_TYPE": 0, "CLASSIFICATION_TYPE": "U", "NORAD_CAT_ID": 54026, "ELEMENT_SET_NO": 999, "REV_AT_EPOCH": 1195, "BSTAR": 0, "MEAN_MOTION_DOT": 1.03e-06, "MEAN_MOTION_DDOT": 0}, "tle": {"line1": "1 54026U 22128A   25354.52488134  .00000103  00000+0  00000+0 0  9998", "line2": "2 54026   0.0157  42.0026 0001552 226.8341 236.4800  1.00271284 11959"}}, "geometry": {"type": "Point", "coordinates": [-93.6366889359464, -0.0321886820217317]}}, {"type": "Feature", "properties": {"norad_id": 54027, "name": "GALAXY 34 (G-34)", "group": "intelsat", "lat": -0.04996310016044738, "lon": -89.58294527820645, "alt_km": 35779.84129165049, "timestamp": "2025-12-20T20:38:44.111917+00:00", "meta": {"OBJECT_NAME": "GALAXY 34 (G-34)", "OBJECT_ID": "2022-128B", "EPOCH": "2025-12-20T12:57:25.874784", "MEAN_MOTION": 1.00267896, "ECCENTRICITY": 0.00017397, "INCLINATION": 0.0232, "RA_OF_ASC_NODE": 10.5268, "ARG_OF_PERICENTER": 252.6783, "MEAN_ANOMALY": 251.5813, "EPHEMERIS_TYPE": 0, "CLASSIFICATION_TYPE": "U", "NORAD_CAT_ID": 54027, "ELEMENT_SET_NO": 999, "REV_AT_EPOCH": 1212, "BSTAR": 0, "MEAN_MOTION_DOT": 0, "MEAN_MOTION_DDOT": 0}, "tle": {"line1": "1 54027U 22128B   25354.53988281  .00000000  00000+0  00000+0 0  9994", "line2": "2 54027   0.0232  10.5268 0001739 252.6783 251.5813  1.00267896 12122"}}, "geometry": {"type": "Point", "coordinates": [-89.58294527820645, -0.04996310016044738]}}, {"type": "Feature", "properties": {"norad_id": 54243, "name": "GALAXY 31 (G-31)", "group": "intelsat", "lat": -0.0202857689430089, "lon": -81.63666268663884, "alt_km": 35780.43933598922, "timestamp": "2025-12-20T20:38:44.111928+00:00", "meta": {"OBJECT_NAME": "GALAXY 31 (G-31)", "OBJECT_ID": "2022-153A", "EPOCH": "2025-12-20T12:39:19.412928", "MEAN_MOTION": 1.00271126, "ECCENTRICITY": 0.00013728, "INCLINATION": 0.0192, "RA_OF_ASC_NODE": 82.2452, "ARG_OF_PERICENTER": 196.0743, "MEAN_ANOMALY": 239.8726, "EPHEMERIS_TYPE": 0, "CLASSIFICATION_TYPE": "U", "NORAD_CAT_ID": 54243, "ELEMENT_SET_NO": 999, "REV_AT_EPOCH": 534, "BSTAR": 0, "MEAN_MOTION_DOT": 3.7e-07, "MEAN_MOTION_DDOT": 0}, "tle": {"line1": "1 54243U 22153A   25354.52730802  .00000037  00000+0  00000+0 0  9995", "line2": "2 54243   0.0192  82.2452 0001372 196.0743 239.8726  1.00271126  5347"}}, "geometry": {"type": "Point", "coordinates": [-81.63666268663884, -0.0202857689430089]}}, {"type": "Feature", "properties": {"norad_id": 54244, "name": "GALAXY 32 (G-32)", "group": "intelsat", "lat": -0.032029920909050685, "lon": -51.63594301428351, "alt_km": 35778.2803284251, "timestamp": "2025-12-20T20:38:44.111939+00:00", "meta": {"OBJECT_NAME": "GALAXY 32 (G-32)", "OBJECT_ID": "2022-153B", "EPOCH": "2025-12-19T12:21:45.204192", "MEAN_MOTION": 1.00271304, "ECCENTRICITY": 0.0001932, "INCLINATION": 0.0112, "RA_OF_ASC_NODE": 8.1777, "ARG_OF_PERICENTER": 310.6888, "MEAN_ANOMALY": 223.9419, "EPHEMERIS_TYPE": 0, "CLASSIFICATION_TYPE": "U", "NORAD_CAT_ID": 54244, "ELEMENT_SET_NO": 999, "REV_AT_EPOCH": 1134, "BSTAR": 0, "MEAN_MOTION_DOT": -1.5e-06, "MEAN_MOTION_DDOT": 0}, "tle": {"line1": "1 54244U 22153B   25353.51510653 -.00000150  00000+0  00000+0 0  9991", "line2": "2 54244   0.0112   8.1777 0001932 310.6888 223.9419  1.00271304 11341"}}, "geometry": {"type": "Point", "coordinates": [-51.63594301428351, -0.032029920909050685]}}, {"type": "Feature", "properties": {"norad_id": 54741, "name": "GALAXY 35 (G-35)", "group": "intelsat", "lat": -0.03212311903782748, "lon": -53.716475039124916, "alt_km": 35778.43699776841, "timestamp": "2025-12-20T20:38:44.111951+00:00", "meta": {"OBJECT_NAME": "GALAXY 35 (G-35)", "OBJECT_ID": "2022-170A", "EPOCH": "2025-12-20T11:17:55.670208", "MEAN_MOTION": 1.00272221, "ECCENTRICITY": 0.00021499, "INCLINATION": 0.0149, "RA_OF_ASC_NODE": 49.7326, "ARG_OF_PERICENTER": 222.5076, "MEAN_ANOMALY": 253.4523, "EPHEMERIS_TYPE": 0, "CLASSIFICATION_TYPE": "U", "NORAD_CAT_ID": 54741, "ELEMENT_SET_NO": 999, "REV_AT_EPOCH": 1110, "BSTAR": 0, "MEAN_MOTION_DOT": -1.39e-06, "MEAN_MOTION_DDOT": 0}, "tle": {"line1": "1 54741U 22170A   25354.47078322 -.00000139  00000+0  00000+0 0  9997", "line2": "2 54741   0.0149  49.7326 0002149 222.5076 253.4523  1.00272221 11102"}}, "geometry": {"type": "Point", "coordinates": [-53.716475039124916, -0.03212311903782748]}}, {"type": "Feature", "properties": {"norad_id": 54742, "name": "GALAXY 36 (G-36)", "group": "intelsat", "lat": -0.03461233774413856, "lon": -49.649769607502705, "alt_km": 35785.43129351924, "timestamp": "2025-12-20T20:38:44.111962+00:00", "meta": {"OBJECT_NAME": "GALAXY 36 (G-36)", "OBJECT_ID": "2022-170B", "EPOCH": "2025-12-20T05:57:27.900576", "MEAN_MOTION": 1.00269554, "ECCENTRICITY": 4.239e-05, "INCLINATION": 0.0144, "RA_OF_ASC_NODE": 13.7124, "ARG_OF_PERICENTER": 338.7619, "MEAN_ANOMALY": 96.9725, "EPHEMERIS_TYPE": 0, "CLASSIFICATION_TYPE": "U", "NORAD_CAT_ID": 54742, "ELEMENT_SET_NO": 999, "REV_AT_EPOCH": 1098, "BSTAR": 0, "MEAN_MOTION_DOT": 0, "MEAN_MOTION_DDOT": 0}, "tle": {"line1": "1 54742U 22170B   25354.24823959  .00000000  00000+0  00000+0 0  9993", "line2": "2 54742   0.0144  13.7124 0000423 338.7619  96.9725  1.00269554 10985"}}, "geometry": {"type": "Point", "coordinates": [-49.649769607502705, -0.03461233774413856]}}, {"type": "Feature", "properties": {"norad_id": 57493, "name": "GALAXY 37 (G-37)", "group": "intelsat", "lat": -0.04371536644106924, "lon": -87.6422527161555, "alt_km": 35778.147510505456, "timestamp": "2025-12-20T20:38:44.111974+00:00", "meta": {"OBJECT_NAME": "GALAXY 37 (G-37)", "OBJECT_ID": "2023-112A", "EPOCH": "2025-12-20T10:54:51.918048", "MEAN_MOTION": 1.00270902, "ECCENTRICITY": 0.00019255, "INCLINATION": 0.0163, "RA_OF_ASC_NODE": 358.7319, "ARG_OF_PERICENTER": 273.171, "MEAN_ANOMALY": 214.098, "EPHEMERIS_TYPE": 0, "CLASSIFICATION_TYPE": "U", "NORAD_CAT_ID": 57493, "ELEMENT_SET_NO": 999, "REV_AT_EPOCH": 875, "BSTAR": 0, "MEAN_MOTION_DOT": 7.2e-07, "MEAN_MOTION_DDOT": 0}, "tle": {"line1": "1 57493U 23112A   25354.45476757  .00000072  00000+0  00000+0 0  9998", "line2": "2 57493   0.0163 358.7319 0001925 273.1710 214.0980  1.00270902  8759"}}, "geometry": {"type": "Point", "coordinates": [-87.6422527161555, -0.04371536644106924]}}]}